[{"OBJECT_NAME":"KOSEN-1","OBJECT_ID":"2021-102H","EPOCH":"2026-03-09T22:29:54.100608","MEAN_MOTION":15.25323573,"ECCENTRICITY":0.00138659,"INCLINATION":97.3334,"RA_OF_ASC_NODE":113.0569,"ARG_OF_PERICENTER":191.9191,"MEAN_ANOMALY":168.1721,"EPHEMERIS_TYPE":0,"CLASSIFICATION_TYPE":"U","NORAD_CAT_ID":49402,"ELEMENT_SET_NO":999,"REV_AT_EPOCH":23888,"BSTAR":0.00040411561,"MEAN_MOTION_DOT":0.00010142,"MEAN_MOTION_DDOT":0},{"OBJECT_NAME":"COSMOS 2556","OBJECT_ID":"2022-054A","EPOCH":"2026-03-10T00:10:17.786784","MEAN_MOTION":15.25603379,"ECCENTRICITY":0.00026445,"INCLINATION":97.619,"RA_OF_ASC_NODE":16.747,"ARG_OF_PERICENTER":87.0138,"MEAN_ANOMALY":273.1402,"EPHEMERIS_TYPE":0,"CLASSIFICATION_TYPE":"U","NORAD_CAT_ID":52713,"ELEMENT_SET_NO":999,"REV_AT_EPOCH":21161,"BSTAR":0.00015936962,"MEAN_MOTION_DOT":3.973e-5,"MEAN_MOTION_DDOT":0}]
